NORAD_CAT_ID,OBJECT_NAME,OBJECT_TYPE,EPOCH,MEAN_MOTION,ECCENTRICITY,INCLINATION,RA_OF_ASC_NODE,ARG_OF_PERICENTER,MEAN_ANOMALY,BSTAR,MEAN_MOTION_DOT,MEAN_MOTION_DDOT,TLE_LINE0,TLE_LINE1,TLE_LINE2,SEMIMAJOR_AXIS,PERIOD,APOGEE,PERIGEE,DECAYED
54170.0,STARLINK-5155,PAYLOAD,2023-01-10 08:50:57,15.08844196,8.640000000000001e-05,53.2146,146.1156,85.7517,274.3574,1.7755000000000004e-06,-2.59e-06,0.0,0 STARLINK-5155,1 54170U 22141P   23010.36872541 -.00000259  00000-0  17755-5 0  9996,2 54170  53.2146 146.1156 0000864  85.7517 274.3574 15.08844196 11599,6917.868,95.437,540.33,539.135,0.0
54170.0,STARLINK-5155,PAYLOAD,2023-01-11 11:52:30,15.08848227,0.0001466,53.2133,141.0579,75.3652,284.7502,0.00010706,1.417e-05,0.0,0 STARLINK-5155,1 54170U 22141P   23011.49480054  .00001417  00000-0  10706-3 0  9998,2 54170  53.2133 141.0579 0001466  75.3652 284.7502 15.08848227 11755,6917.855,95.437,540.734,538.706,0.0
54170.0,STARLINK-5155,PAYLOAD,2023-01-11 15:03:17,15.08848928,0.0001524,53.2162,140.4672,61.8283,298.2863,0.00014536,2.027e-05,0.0,0 STARLINK-5155,1 54170U 22141P   23011.62728256  .00002027  00000-0  14536-3 0  9995,2 54170  53.2162 140.4672 0001524  61.8283 298.2863 15.08848928 11780,6917.853,95.437,540.7719999999998,538.664,0.0
54170.0,STARLINK-5155,PAYLOAD,2023-01-11 18:14:03,15.08849457,0.0001523,53.2166,139.8709,62.1737,297.9409,0.00021753,3.177e-05,0.0,0 STARLINK-5155,1 54170U 22141P   23011.75976193  .00003177  00000-0  21753-3 0  9990,2 54170  53.2166 139.8709 0001523  62.1737 297.9409 15.08849457 11807,6917.851,95.437,540.77,538.663,0.0
54170.0,STARLINK-5155,PAYLOAD,2023-01-12 18:04:50,15.08844758,0.0001592,53.2162,135.4085,71.8342,288.2824,8.6331e-05,1.086e-05,0.0,0 STARLINK-5155,1 54170U 22141P   23012.75336346  .00001086  00000-0  86331-4 0  9992,2 54170  53.2162 135.4085 0001592  71.8342 288.2824 15.08844758 11945,6917.866,95.437,540.832,538.63,0.0
54170.0,STARLINK-5155,PAYLOAD,2023-01-13 11:34:06,15.08822799,0.0001429,53.2153,132.1379,47.1133,312.9979,-0.00017669,-3.098e-05,0.0,0 STARLINK-5155,1 54170U 22141P   23013.48201699 -.00003098  00000-0 -17669-3 0  9999,2 54170  53.2153 132.1379 0001429  47.1133 312.9979 15.08822799 12058,6917.933000000001,95.439,540.7869999999999,538.809,0.0
54170.0,STARLINK-5155,PAYLOAD,2023-01-13 14:44:52,15.08834186,0.0001333,53.2165,131.5452,59.7241,300.3883,-2.0191e-05,-6.09e-06,0.0,0 STARLINK-5155,1 54170U 22141P   23013.61449337 -.00000609  00000-0 -20191-4 0  9997,2 54170  53.2165 131.5452 0001333  59.7241 300.3883 15.08834186 12080,6917.898,95.438,540.685,538.841,0.0
54170.0,STARLINK-5155,PAYLOAD,2023-01-13 17:55:38,15.08834107,0.0001394,53.217,130.9496,61.1741,298.9391,9.459e-06,-1.37e-06,0.0,0 STARLINK-5155,1 54170U 22141P   23013.74697503 -.00000137  00000-0  94590-5 0  9991,2 54170  53.2170 130.9496 0001394  61.1741 298.9391 15.08834107 12096,6917.898,95.438,540.7280000000001,538.799,0.0
54170.0,STARLINK-5155,PAYLOAD,2023-01-14 00:17:11,15.08830363,0.0001384,53.2178,129.7598,59.9369,300.1761,-4.7186000000000005e-05,-1.039e-05,0.0,0 STARLINK-5155,1 54170U 22141P   23014.01194206 -.00001039  00000-0 -47186-4 0  9995,2 54170  53.2178 129.7598 0001384  59.9369 300.1761 15.08830363 12135,6917.91,95.438,540.732,538.817,0.0
54170.0,STARLINK-5155,PAYLOAD,2023-01-14 17:46:25,15.0884446,0.0001807,53.2174,126.4894,62.541,297.5766,0.00020725,3.012e-05,0.0,0 STARLINK-5155,1 54170U 22141P   23014.74057620  .00003012  00000-0  20725-3 0  9993,2 54170  53.2174 126.4894 0001807  62.5410 297.5766 15.08844460 12240,6917.866999999999,95.437,540.982,538.482,0.0
54170.0,STARLINK-5155,PAYLOAD,2023-01-15 00:07:59,15.08824749,0.0002431,53.217,125.2999,67.7277,292.3972,-3.8212e-05,-8.96e-06,0.0,0 STARLINK-5155,1 54170U 22141P   23015.00555095 -.00000896  00000-0 -38212-4 0  9992,2 54170  53.2170 125.2999 0002431  67.7277 292.3972 15.08824749 12285,6917.927,95.439,541.474,538.11,0.0
54170.0,STARLINK-5155,PAYLOAD,2023-01-15 12:51:04,15.08833439,0.0001356,53.2171,122.9211,90.5849,269.5299,9.5925e-05,1.239e-05,0.0,0 STARLINK-5155,1 54170U 22141P   23015.53546911  .00001239  00000-0  95925-4 0  9991,2 54170  53.2171 122.9211 0001356  90.5849 269.5299 15.08833439 12375,6917.9,95.438,540.7040000000001,538.827,0.0
54170.0,STARLINK-5155,PAYLOAD,2023-01-15 14:26:27,15.088383800000004,0.0001145,53.2166,122.6236,77.9847,282.1274,0.000165,2.339e-05,0.0,0 STARLINK-5155,1 54170U 22141P   23015.60170662  .00002339  00000-0  16500-3 0  9998,2 54170  53.2166 122.6236 0001145  77.9847 282.1274 15.08838380 12370,6917.885,95.438,540.5419999999999,538.9580000000001,0.0
54170.0,STARLINK-5155,PAYLOAD,2023-01-16 12:41:50,15.0885326,0.0001398,53.2187,118.4611,103.4546,256.6601,0.0001205,1.631e-05,0.0,0 STARLINK-5155,1 54170U 22141P   23016.52905933  .00001631  00000-0  12050-3 0  9997,2 54170  53.2187 118.4611 0001398 103.4546 256.6601 15.08853260 12525,6917.84,95.437,540.672,538.738,0.0
54170.0,STARLINK-5155,PAYLOAD,2023-01-16 15:52:36,15.08859445,0.0001259,53.2183,117.8663,80.8584,279.255,0.0001788,2.56e-05,0.0,0 STARLINK-5155,1 54170U 22141P   23016.66153407  .00002560  00000-0  17880-3 0  9991,2 54170  53.2183 117.8663 0001259  80.8584 279.2550 15.08859445 12533,6917.821,95.436,540.557,538.815,0.0
54170.0,STARLINK-5155,PAYLOAD,2023-01-16 19:03:23,15.0883785,9e-05,53.2172,117.2719,46.7027,313.404,-5.5337e-05,-1.168e-05,0.0,0 STARLINK-5155,1 54170U 22141P   23016.79402497 -.00001168  00000-0 -55337-4 0  9996,2 54170  53.2172 117.2719 0000900  46.7027 313.4040 15.08837850 12566,6917.887,95.438,540.375,539.129,0.0
54170.0,STARLINK-5155,PAYLOAD,2023-01-16 23:49:34,15.08803973,6.25e-05,53.2172,116.3795,74.9907,285.1154,-0.00035729,-5.964e-05,0.0,0 STARLINK-5155,1 54170U 22141P   23016.99276413 -.00005964  00000-0 -35729-3 0  9995,2 54170  53.2172 116.3795 0000625  74.9907 285.1154 15.08803973 12586,6917.991,95.44,540.288,539.423,0.0
54170.0,STARLINK-5155,PAYLOAD,2023-01-17 12:32:40,15.08814994,0.0001289,53.2166,114.0031,69.8453,290.2678,-0.00010713,-1.991e-05,0.0,0 STARLINK-5155,1 54170U 22141P   23017.52268992 -.00001991  00000-0 -10713-3 0  9990,2 54170  53.2166 114.0031 0001289  69.8453 290.2678 15.08814994 12676,6917.956999999999,95.439,540.714,538.93,0.0
54170.0,STARLINK-5155,PAYLOAD,2023-01-17 15:43:26,15.08817148,0.0001222,53.2153,113.4085,46.4023,313.707,-0.000108,-2.005e-05,0.0,0 STARLINK-5155,1 54170U 22141P   23017.65516970 -.00002005  00000-0 -10800-3 0  9990,2 54170  53.2153 113.4085 0001222  46.4023 313.7070 15.08817148 12687,6917.95,95.439,540.661,538.97,0.0
54170.0,STARLINK-5155,PAYLOAD,2023-01-18 12:23:25,15.08861143,9.86e-05,53.2178,109.5402,78.4213,281.689,0.00048352,7.42e-05,0.0,0 STARLINK-5155,1 54170U 22141P   23018.51627027  .00007420  00000-0  48352-3 0  9999,2 54170  53.2178 109.5402 0000986  78.4213 281.6890 15.08861143 12817,6917.816,95.436,540.363,538.999,0.0
54170.0,STARLINK-5155,PAYLOAD,2023-01-18 23:31:07,15.08857929,0.0001281,53.2179,107.4608,66.9767,293.1361,0.00022929,3.365e-05,0.0,0 STARLINK-5155,1 54170U 22141P   23018.97994902  .00003365  00000-0  22929-3 0  9994,2 54170  53.2179 107.4608 0001281  66.9767 293.1361 15.08857929 12883,6917.826,95.436,540.577,538.804,0.0
54170.0,STARLINK-5155,PAYLOAD,2023-01-19 05:52:41,15.08825446,9.96e-05,53.2167,106.269,97.0729,263.0376,0.00028919,4.316e-05,0.0,0 STARLINK-5155,1 54170U 22141P   23019.24492599  .00004316  00000-0  28919-3 0  9992,2 54170  53.2167 106.2690 0000996  97.0729 263.0376 15.08825446 12929,6917.925,95.438,540.479,539.101,0.0
54170.0,STARLINK-5155,PAYLOAD,2023-01-19 10:38:51,15.08831755,0.0001365999999999,53.2175,105.3816,72.3292,287.7849,0.00021549,3.143e-05,0.0,0 STARLINK-5155,1 54170U 22141P   23019.44364614  .00003143  00000-0  21549-3 0  9999,2 54170  53.2175 105.3816 0001366  72.3292 287.7849 15.08831755 12963,6917.906,95.438,540.716,538.826,0.0
54170.0,STARLINK-5155,PAYLOAD,2023-01-19 15:24:59,15.08843396,0.0001301,53.2163,104.4834,95.7349,264.3791,0.00027182,4.041e-05,0.0,0 STARLINK-5155,1 54170U 22141P   23019.64236074  .00004041  00000-0  27182-3 0  9996,2 54170  53.2163 104.4834 0001301  95.7349 264.3791 15.08843396 12984,6917.87,95.437,540.635,538.835,0.0
54170.0,STARLINK-5155,PAYLOAD,2023-01-20 12:05:00,15.08850747,0.0001075,53.2165,100.6203,89.7972,270.3144,-8.774e-06,-4.27e-06,0.0,0 STARLINK-5155,1 54170U 22141P   23020.50347278 -.00000427  00000-0 -87740-5 0  9996,2 54170  53.2165 100.6203 0001075  89.7972 270.3144 15.08850747 13121,6917.848000000001,95.437,540.456,538.969,0.0
54170.0,STARLINK-5155,PAYLOAD,2023-01-20 21:37:18,15.08845438,0.0001099,53.2178,98.8371,82.2155,277.8962,6.1278e-05,6.88e-06,0.0,0 STARLINK-5155,1 54170U 22141P   23020.90091432  .00000688  00000-0  61278-4 0  9992,2 54170  53.2178  98.8371 0001099  82.2155 277.8962 15.08845438 13172,6917.8640000000005,95.437,540.489,538.9680000000001,0.0
54170.0,STARLINK-5155,PAYLOAD,2023-01-21 15:06:33,15.08856071,0.0001145,53.2188,95.5634,77.7223,282.3897,0.00048034,7.368e-05,0.0,0 STARLINK-5155,1 54170U 22141P   23021.62955220  .00007368  00000-0  48034-3 0  9992,2 54170  53.2188  95.5634 0001145  77.7223 282.3897 15.08856071 13281,6917.831,95.437,540.488,538.904,0.0
54170.0,STARLINK-5155,PAYLOAD,2023-01-22 11:46:34,15.08854192,0.0001053,53.2174,91.7012,110.1471,249.9635,0.00050021,7.685e-05,0.0,0 STARLINK-5155,1 54170U 22141P   23022.49067181  .00007685  00000-0  50021-3 0  9999,2 54170  53.2174  91.7012 0001053 110.1471 249.9635 15.08854192 13415,6917.837,95.437,540.43,538.974,0.0
54170.0,STARLINK-5155,PAYLOAD,2023-01-23 03:40:25,15.08852604,0.0001958,53.2179,88.7295,86.2849,273.8367,0.00064196,9.947e-05,0.0,0 STARLINK-5155,1 54170U 22141P   23023.15307582  .00009947  00000-0  64196-3 0  9996,2 54170  53.2179  88.7295 0001958  86.2849 273.8367 15.08852604 13510,6917.842,95.437,541.061,538.352,0.0
